ONEWEB-0126             
1 47272U 20100Q   23241.40116649  .00000524  00000+0  14213-2 0  9991
2 47272  87.8971 193.9822 0002221  78.1650 281.9728 13.12444733130544
ONEWEB-0127             
1 47273U 20100R   23241.36410058 -.00000314  00000+0 -90928-3 0  9995
2 47273  87.9043 193.9711 0002111  78.9775 281.1591 13.12441105130569
ONEWEB-0128             
1 47274U 20100S   23240.85163681  .00000321  00000+0  85657-3 0  9995
2 47274  87.9050 194.0571 0002429  85.3007 274.8399 13.12442949130513
ONEWEB-0129             
1 47275U 20100T   23241.36623030 -.00000289  00000+0 -83929-3 0  9997
2 47275  87.8993 194.0013 0003217  52.7875 307.3546 13.12444127130513
ONEWEB-0130             
1 47276U 20100U   23241.39166044  .00000476  00000+0  12891-2 0  9993
2 47276  87.8976 193.9899 0002117  81.9981 278.1387 13.12443589130480
ONEWEB-0131             
1 47277U 20100V   23241.38953342  .00000454  00000+0  12258-2 0  9991
2 47277  87.9056 193.9408 0002092  85.4678 274.6689 13.12443144130529
ONEWEB-0132             
1 47278U 20100W   23241.41919716  .00000097  00000+0  23296-3 0  9991
2 47278  87.9056 193.9370 0001844  87.0121 273.1218 13.12442679130426
ONEWEB-0133             
1 47279U 20100X   23241.35986578 -.00000385  00000+0 -11064-2 0  9996
2 47279  87.9041 193.9775 0002068  84.1511 275.9854 13.12441051130575
